STARLINK-31508          
1 59503U 24071V   24188.44025130  .00000570  00000+0  20912-4 0  9997
2 59503  42.9993 229.7733 0001404 271.6127  88.4569 15.40689423 14241
STARLINK-31535          
1 59504U 24071W   24188.47560555  .00001662  00000+0  47057-4 0  9998
2 59504  43.0005 229.1698 0001199 265.2875  94.7844 15.40685588 14257
STARLINK-31533          
1 59505U 24071X   24188.17645323  .00000224  00000+0  12629-4 0  9993
2 59505  43.0013 231.2293 0001368 263.5026  96.5675 15.40694430 14202
STARLINK-31524          
1 59506U 24071Y   24188.48940286 -.00001030  00000+0 -17394-4 0  9996
2 59506  43.0009 229.2809 0001429 277.6557  82.4138 15.40689769 14264
STARLINK-31635          
1 59511U 24073A   24188.12485684 -.00000164  00000+0  33339-5 0  9995
2 59511  43.0020 201.3396 0001568 276.0991  83.9687 15.40698958 13527
STARLINK-31650          
1 59512U 24073B   24188.41539938  .00001830  00000+0  51057-4 0  9996
2 59512  42.9987 199.2108 0001076 267.7068  92.3666 15.40697814 13565
STARLINK-31658          
1 59513U 24073C   24188.25001157  .00016125  00000+0  28051-3 0  9996
2 59513  43.0060 172.1137 0001138 273.8608  29.2539 15.50540081 13752
STARLINK-31664          
1 59514U 24073D   24188.21419492 -.00000447  00000+0 -34429-5 0  9998
2 59514  43.0001 200.2767 0001556 277.0806  82.9873 15.40689790 13443
STARLINK-31669          
1 59515U 24073E   24187.40501864  .00002071  00000+0  56831-4 0  9997
2 59515  43.0004 205.3961 0001167 281.0205  79.0520 15.40690463 12191
STARLINK-31671          
1 59516U 24073F   24188.13815209 -.00003937  00000+0 -87014-4 0  9991
2 59516  42.9976 200.5609 0002310 305.7178  54.3464 15.40700290 13530
STARLINK-31674          
1 59517U 24073G   24188.37072902  .00000058  00000+0  86500-5 0  9992
2 59517  42.9993 199.7393 0001563 261.7498  98.3181 15.40695949 13565
STARLINK-31672          
1 59518U 24073H   24188.58335648  .00135876  00000+0  74128-3 0  9993
2 59518  42.9924 183.4076 0008224 123.8390  16.2772 15.78695775 13774
STARLINK-31679          
1 59519U 24073J   24187.77159064 -.00000453  00000+0 -35857-5 0  9992
2 59519  43.0013 202.9777 0001119 263.5626  96.5103 15.40698953 12252
STARLINK-31370          
1 59520U 24073K   24188.39971798  .00000368  00000+0  16068-4 0  9994
2 59520  43.0023 199.0870 0001434 263.5884  96.4809 15.40690731 13474
STARLINK-31404          
1 59521U 24073L   24188.13367791  .00000578  00000+0  21081-4 0  9993
2 59521  43.0005 200.5270 0001173 262.7314  97.3409 15.40709659 13539
STARLINK-31453          
1 59522U 24073M   24188.15819030  .00000673  00000+0  23371-4 0  9994
2 59522  43.0012 199.8456 0000991 266.2741  93.8002 15.40690198 13441
STARLINK-31476          
1 59523U 24073N   24188.15161212 -.00002280  00000+0 -47357-4 0  9995
2 59523  42.9999 200.6664 0001291 271.5637  88.5071 15.40685926 13432
STARLINK-31376          
1 59524U 24073P   24188.31710737 -.00000804  00000+0 -12003-4 0  9996
2 59524  42.9995 200.1998 0001197 271.0184  89.0535 15.40691478 13543
STARLINK-31538          
1 59525U 24073Q   24188.44004382 -.00002259  00000+0 -46844-4 0  9999
2 59525  42.9999 199.3987 0001162 264.7916  95.2808 15.40690185 13466
STARLINK-31564          
1 59526U 24073R   24188.44452339  .00001149  00000+0  34762-4 0  9990
2 59526  43.0008 199.4325 0001309 272.9553  87.1153 15.40692452 13572
STARLINK-31452          
1 59527U 24073S   24188.39523000 -.00000175  00000+0  30734-5 0  9994
2 59527  43.0017 199.0519 0001233 269.6444  90.4271 15.40711750 13472
STARLINK-31618          
1 59528U 24073T   24188.42884290  .00004420  00000+0  11305-3 0  9997
2 59528  43.0024 199.3131 0001425 259.9802 100.0894 15.40688358 13585
STARLINK-31513          
1 59529U 24073U   24188.10079990  .00056123  00000+0  90394-3 0  9998
2 59529  43.0009 198.5390 0011888 110.8180 249.3956 15.52060511 13556
STARLINK-31392          
1 59530U 24073V   24188.49816483  .00000645  00000+0  22693-4 0  9994
2 59530  43.0008 198.9707 0000874 261.1194  98.9563 15.40688053 13591
STARLINK-31619          
1 59531U 24073W   24188.43779363  .00015588  00000+0  37938-3 0  9993
2 59531  42.9987 199.3831 0001676 259.9507 100.1160 15.40722552 13472
STARLINK-31624          
1 59532U 24073X   24188.07715594 -.00009086  00000+0 -21061-3 0  9998
2 59532  42.9968 199.1662 0001276 245.8184 114.2539 15.40684175 13512
STARLINK-31509          
1 59533U 24073Y   24187.74023464  .00001333  00000+0  39190-4 0  9998
2 59533  43.0035 202.7463 0001545 263.6688  96.3993 15.40689262 12252
STARLINK-31734          
1 59534U 24074A   24187.82204768  .00000163  00000+0  11161-4 0  9995
2 59534  43.0016 227.8935 0001132 278.2000  81.8728 15.40693547 12106
STARLINK-31738          
1 59535U 24074B   24188.46032271  .00000154  00000+0  10956-4 0  9996
2 59535  43.0022 219.6698 0001352 279.1281  80.9422 15.40692721 13424
STARLINK-31721          
1 59536U 24074C   24188.45464886  .00001514  00000+0  43493-4 0  9990
2 59536  43.0011 224.0388 0001671 272.0092  88.0573 15.40701230 13371
STARLINK-31737          
1 59537U 24074D   24187.59807748  .00003299  00000+0  86199-4 0  9995
2 59537  43.0016 228.7871 0001222 269.9556  90.1160 15.40698959 12072
STARLINK-31725          
1 59538U 24074E   24188.40087306 -.00000393  00000+0 -21345-5 0  9994
2 59538  43.0009 213.8238 0001426 259.2292 100.8404 15.40686541 13482
STARLINK-31539          
1 59539U 24074F   24188.49896432  .00001459  00000+0  42207-4 0  9993
2 59539  43.0020 223.5023 0001398 277.2570  82.8127 15.40689725 13289
STARLINK-31397          
1 59540U 24074G   24188.48103649  .00001236  00000+0  36870-4 0  9997
2 59540  42.9995 223.3656 0001612 268.5297  91.5375 15.40688397 13385
STARLINK-31481          
1 59541U 24074H   24187.81532220  .00000594  00000+0  21470-4 0  9991
2 59541  43.0006 227.8386 0001092 270.2687  89.8044 15.40698447 12104
STARLINK-31540          
1 59542U 24074J   24188.44792598  .00011411  00000+0  27990-3 0  9990
2 59542  42.9978 223.9847 0001427 277.1546  82.9148 15.40713108 13373
STARLINK-31574          
1 59543U 24074K   24188.49448474 -.00000130  00000+0  41588-5 0  9995
2 59543  43.0019 223.4668 0001397 264.0065  96.0632 15.40691934 13382
STARLINK-31556          
1 59544U 24074L   24188.48552629 -.00002745  00000+0 -58503-4 0  9992
2 59544  43.0015 223.3973 0001373 256.2851 103.7852 15.40688398 13387
STARLINK-31582          
1 59545U 24074M   24188.47656301 -.00000803  00000+0 -11945-4 0  9996
2 59545  43.0026 223.3292 0001865 267.7550  92.3093 15.40693283 13382
STARLINK-31519          
1 59546U 24074N   24188.19981224  .00004112  00000+0  10560-3 0  9997
2 59546  42.9987 225.5610 0001105 296.8038  63.2705 15.40709147 13335
STARLINK-31736          
1 59547U 24074P   24187.81931362  .00000258  00000+0  13450-4 0  9993
2 59547  43.0009 226.9909 0001270 263.3927  96.6785 15.40694833 12116
STARLINK-31675          
1 59548U 24074Q   24188.44533434 -.00000956  00000+0 -15639-4 0  9990
2 59548  43.0012 223.9649 0001241 277.6496  82.4219 15.40682234 13372
STARLINK-31722          
1 59549U 24074R   24188.13722568  .00000991  00000+0  30983-4 0  9991
2 59549  43.0003 225.9498 0001265 286.2839  73.7878 15.40699187 13278
STARLINK-31741          
1 59550U 24074S   24188.45690159 -.00000909  00000+0 -14520-4 0  9998
2 59550  43.0019 224.0542 0001340 272.0175  88.0528 15.40683891 13262
STARLINK-31699          
1 59551U 24074T   24188.11894912  .00000629  00000+0  22310-4 0  9998
2 59551  43.0009 225.8114 0001284 283.9028  76.1685 15.40697428 13321
STARLINK-31750          
1 59552U 24074U   24188.43637197 -.00000493  00000+0 -45368-5 0  9994
2 59552  42.9998 223.8888 0001455 266.9556  93.1134 15.40698260 13435
STARLINK-31723          
1 59553U 24074V   24184.54891275 -.00606049  00000+0 -16103-1 0  9992
2 59553  42.9996 246.3178 0001954 244.9321 115.1333 15.39914194 11604
STARLINK-31724          
1 59554U 24074W   24188.49224662  .00001196  00000+0  35898-4 0  9996
2 59554  43.0017 223.4476 0001382 271.5816  88.4882 15.40684200 13289
STARLINK-31730          
1 59555U 24074X   24188.47880959 -.00000239  00000+0  15387-5 0  9992
2 59555  43.0022 223.3453 0001377 282.8611  77.2091 15.40685858 13381
STARLINK-31718          
1 59556U 24074Y   24187.83499135  .00000074  00000+0  90306-5 0  9994
2 59556  43.0006 227.1121 0001323 250.7336 109.3378 15.40703820 12112
STARLINK-31747          
1 59564U 24076A   24188.21259157 -.00000992  00000+0 -16488-4 0  9995
2 59564  42.9979 252.7357 0001282 281.8415  78.2298 15.40695105 12627
STARLINK-31388          
1 59565U 24076B   24188.47366182  .00001163  00000+0  35113-4 0  9996
2 59565  43.0005 250.3991 0001226 278.5598  81.5119 15.40687746 12688
STARLINK-31332          
1 59566U 24076C   24188.23225933  .00001347  00000+0  39512-4 0  9990
2 59566  42.9988 252.0143 0001411 271.7602  88.3093 15.40693889 12649
STARLINK-31689          
1 59567U 24076D   24188.19690336  .00002119  00000+0  57978-4 0  9993
2 59567  42.9984 252.6137 0001445 262.2173  97.8520 15.40702521 12633
STARLINK-31471          
1 59568U 24076E   24188.54519957 -.00001883  00000+0 -37828-4 0  9993
2 59568  42.9995 250.0592 0001348 276.8644  83.2059 15.40691439 12528
STARLINK-31470          
1 59569U 24076F   24187.88172721 -.00000165  00000+0  33014-5 0  9999
2 59569  42.9988 254.5484 0001036 272.0253  88.0484 15.40696693 12418
STARLINK-31587          
1 59570U 24076G   24188.36899094  .00001737  00000+0  48846-4 0  9997
2 59570  42.9969 251.3188 0001843 253.3482 106.7172 15.40698126 12658
STARLINK-31606          
1 59571U 24076H   24188.25001157  .00021819  00000+0  52845-3 0  9997
2 59571  42.9974 252.1875 0001451 261.0339  83.6977 15.40679778 12466
STARLINK-31666          
1 59572U 24076J   24187.46523933  .00000195  00000+0  11935-4 0  9991
2 59572  43.0009 254.8309 0002117 274.2687  85.7928 15.40699048 12541
